STARLINK-36636          
1 67611U 26018Y   26054.50001156  .00121971  00000+0  80925-3 0  9990
2 67611  97.2861 119.6823 0001449  84.7002 114.7054 15.75125171  5074
STARLINK-36407          
1 67612U 26018Z   26054.15743341  .00157564  00000+0  10375-2 0  9999
2 67612  97.2841 119.3032 0001273  11.2663 348.8630 15.75198026  5074
STARLINK-36597          
1 67613U 26018AA  26054.13844486  .00089570  00000+0  46302-3 0  9991
2 67613  97.2855 119.3258 0000909  56.5799 303.5556 15.80842482  5025
NEONSAT-1A              
1 67614U 26019A   26054.31144647  .00003821  00000+0  25424-3 0  9992
2 67614  97.4096 178.4048 0012558 218.8456 141.1870 15.07660367  3655
ELECTRON KICK STAGE R/B 
1 67616U 26019C   26054.43841987  .00558069  99343-4  21204-2 0  9991
2 67616  97.4009 180.5203 0151090 173.7842 186.5344 15.71937093  3801
STARLINK-36548          
1 67617U 26020A   26054.48905360  .00312242  00000+0  18351-2 0  9992
2 67617  42.9980 228.5897 0005335 289.1813  70.8479 15.76547122  3840
STARLINK-36601          
1 67618U 26020B   26054.50001156  .00132615  00000+0  80699-3 0  9995
2 67618  42.9991 227.9017 0001683 259.4184  51.7432 15.76301326  5105
STARLINK-36119          
1 67619U 26020C   26053.85325564  .00085182  00000+0  52003-3 0  9999
2 67619  42.9979 232.4229 0001530 284.7619  75.3081 15.76401836  3740
STARLINK-36607          
1 67620U 26020D   26054.50001156  .00120142  00000+0  73191-3 0  9999
2 67620  42.9993 228.0575 0001497 254.5962 354.3558 15.76318087  5107
STARLINK-36615          
1 67621U 26020E   26054.50216347  .00659957  00000+0  28344-2 0  9990
2 67621  42.9978 227.7956 0003073 253.5473 106.5062 15.82538806  3855
STARLINK-36614          
1 67622U 26020F   26053.84886925  .00138510  00000+0  83608-3 0  9994
2 67622  42.9988 232.3866 0002584 287.6022  72.4565 15.76463187  3742
STARLINK-36600          
1 67623U 26020G   26053.85105939  .00098192  00000+0  59657-3 0  9993
2 67623  42.9976 232.4045 0002317 273.3166  86.7439 15.76457498  3741
