CCSDS_OMM_VERS = 2.0
CREATION_DATE  = 
ORIGINATOR     = 

OBJECT_NAME    = STARLINK-36636
OBJECT_ID      = 2026-018Y
CENTER_NAME    = EARTH
REF_FRAME      = TEME
TIME_SYSTEM    = UTC
MEAN_ELEMENT_THEORY = SGP/SGP4

EPOCH          = 2026-02-23T12:00:00.998784
MEAN_MOTION    = 15.75125171
ECCENTRICITY   = .0001449
INCLINATION    = 97.2861
RA_OF_ASC_NODE = 119.6823
ARG_OF_PERICENTER = 84.7002
MEAN_ANOMALY   = 114.7054

EPHEMERIS_TYPE = 0
CLASSIFICATION_TYPE = U
NORAD_CAT_ID   = 67611
ELEMENT_SET_NO = 999
REV_AT_EPOCH   = 507
BSTAR          = .80925E-3
MEAN_MOTION_DOT = .121971E-2
MEAN_MOTION_DDOT = 0

CCSDS_OMM_VERS = 2.0
CREATION_DATE  = 
ORIGINATOR     = 

OBJECT_NAME    = STARLINK-36407
OBJECT_ID      = 2026-018Z
CENTER_NAME    = EARTH
REF_FRAME      = TEME
TIME_SYSTEM    = UTC
MEAN_ELEMENT_THEORY = SGP/SGP4

EPOCH          = 2026-02-23T03:46:42.246624
MEAN_MOTION    = 15.75198026
ECCENTRICITY   = .0001273
INCLINATION    = 97.2841
RA_OF_ASC_NODE = 119.3032
ARG_OF_PERICENTER = 11.2663
MEAN_ANOMALY   = 348.8630

EPHEMERIS_TYPE = 0
CLASSIFICATION_TYPE = U
NORAD_CAT_ID   = 67612
ELEMENT_SET_NO = 999
REV_AT_EPOCH   = 507
BSTAR          = .10375E-2
MEAN_MOTION_DOT = .157564E-2
MEAN_MOTION_DDOT = 0

CCSDS_OMM_VERS = 2.0
CREATION_DATE  = 
ORIGINATOR     = 

OBJECT_NAME    = STARLINK-36597
OBJECT_ID      = 2026-018AA
CENTER_NAME    = EARTH
REF_FRAME      = TEME
TIME_SYSTEM    = UTC
MEAN_ELEMENT_THEORY = SGP/SGP4

EPOCH          = 2026-02-23T03:19:21.635904
MEAN_MOTION    = 15.80842482
ECCENTRICITY   = .00009095
INCLINATION    = 97.2855
RA_OF_ASC_NODE = 119.3258
ARG_OF_PERICENTER = 56.5799
MEAN_ANOMALY   = 303.5556

EPHEMERIS_TYPE = 0
CLASSIFICATION_TYPE = U
NORAD_CAT_ID   = 67613
ELEMENT_SET_NO = 999
REV_AT_EPOCH   = 502
BSTAR          = .46301628E-3
MEAN_MOTION_DOT = .8957E-3
MEAN_MOTION_DDOT = 0

CCSDS_OMM_VERS = 2.0
CREATION_DATE  = 
ORIGINATOR     = 

OBJECT_NAME    = NEONSAT-1A
OBJECT_ID      = 2026-019A
CENTER_NAME    = EARTH
REF_FRAME      = TEME
TIME_SYSTEM    = UTC
MEAN_ELEMENT_THEORY = SGP/SGP4

EPOCH          = 2026-02-23T07:28:28.975008
MEAN_MOTION    = 15.07660367
ECCENTRICITY   = .0012558
INCLINATION    = 97.4096
RA_OF_ASC_NODE = 178.4048
ARG_OF_PERICENTER = 218.8456
MEAN_ANOMALY   = 141.1870

EPHEMERIS_TYPE = 0
CLASSIFICATION_TYPE = U
NORAD_CAT_ID   = 67614
ELEMENT_SET_NO = 999
REV_AT_EPOCH   = 365
BSTAR          = .25424E-3
MEAN_MOTION_DOT = .3821E-4
MEAN_MOTION_DDOT = 0

CCSDS_OMM_VERS = 2.0
CREATION_DATE  = 
ORIGINATOR     = 

OBJECT_NAME    = ELECTRON KICK STAGE R/B
OBJECT_ID      = 2026-019C
CENTER_NAME    = EARTH
REF_FRAME      = TEME
TIME_SYSTEM    = UTC
MEAN_ELEMENT_THEORY = SGP/SGP4

EPOCH          = 2026-02-23T10:31:19.476768
MEAN_MOTION    = 15.71937093
ECCENTRICITY   = .015109
INCLINATION    = 97.4009
RA_OF_ASC_NODE = 180.5203
ARG_OF_PERICENTER = 173.7842
MEAN_ANOMALY   = 186.5344

EPHEMERIS_TYPE = 0
CLASSIFICATION_TYPE = U
NORAD_CAT_ID   = 67616
ELEMENT_SET_NO = 999
REV_AT_EPOCH   = 380
BSTAR          = .21204E-2
MEAN_MOTION_DOT = .558069E-2
MEAN_MOTION_DDOT = .99343E-4

CCSDS_OMM_VERS = 2.0
CREATION_DATE  = 
ORIGINATOR     = 

OBJECT_NAME    = STARLINK-36548
OBJECT_ID      = 2026-020A
CENTER_NAME    = EARTH
REF_FRAME      = TEME
TIME_SYSTEM    = UTC
MEAN_ELEMENT_THEORY = SGP/SGP4

EPOCH          = 2026-02-23T11:44:14.231040
MEAN_MOTION    = 15.76547122
ECCENTRICITY   = .0005335
INCLINATION    = 42.9980
RA_OF_ASC_NODE = 228.5897
ARG_OF_PERICENTER = 289.1813
MEAN_ANOMALY   = 70.8479

EPHEMERIS_TYPE = 0
CLASSIFICATION_TYPE = U
NORAD_CAT_ID   = 67617
ELEMENT_SET_NO = 999
REV_AT_EPOCH   = 384
BSTAR          = .18351E-2
MEAN_MOTION_DOT = .312242E-2
MEAN_MOTION_DDOT = 0

CCSDS_OMM_VERS = 2.0
CREATION_DATE  = 
ORIGINATOR     = 

OBJECT_NAME    = STARLINK-36601
OBJECT_ID      = 2026-020B
CENTER_NAME    = EARTH
REF_FRAME      = TEME
TIME_SYSTEM    = UTC
MEAN_ELEMENT_THEORY = SGP/SGP4

EPOCH          = 2026-02-23T12:00:00.998784
MEAN_MOTION    = 15.76301326
ECCENTRICITY   = .0001683
INCLINATION    = 42.9991
RA_OF_ASC_NODE = 227.9017
ARG_OF_PERICENTER = 259.4184
MEAN_ANOMALY   = 51.7432

EPHEMERIS_TYPE = 0
CLASSIFICATION_TYPE = U
NORAD_CAT_ID   = 67618
ELEMENT_SET_NO = 999
REV_AT_EPOCH   = 510
BSTAR          = .80699E-3
MEAN_MOTION_DOT = .132615E-2
MEAN_MOTION_DDOT = 0

CCSDS_OMM_VERS = 2.0
CREATION_DATE  = 
ORIGINATOR     = 

OBJECT_NAME    = STARLINK-36119
OBJECT_ID      = 2026-020C
CENTER_NAME    = EARTH
REF_FRAME      = TEME
TIME_SYSTEM    = UTC
MEAN_ELEMENT_THEORY = SGP/SGP4

EPOCH          = 2026-02-22T20:28:41.287296
MEAN_MOTION    = 15.76401836
ECCENTRICITY   = .000153
INCLINATION    = 42.9979
RA_OF_ASC_NODE = 232.4229
ARG_OF_PERICENTER = 284.7619
MEAN_ANOMALY   = 75.3081

EPHEMERIS_TYPE = 0
CLASSIFICATION_TYPE = U
NORAD_CAT_ID   = 67619
ELEMENT_SET_NO = 999
REV_AT_EPOCH   = 374
BSTAR          = .52003E-3
MEAN_MOTION_DOT = .85182E-3
MEAN_MOTION_DDOT = 0

CCSDS_OMM_VERS = 2.0
CREATION_DATE  = 
ORIGINATOR     = 

OBJECT_NAME    = STARLINK-36607
OBJECT_ID      = 2026-020D
CENTER_NAME    = EARTH
REF_FRAME      = TEME
TIME_SYSTEM    = UTC
MEAN_ELEMENT_THEORY = SGP/SGP4

EPOCH          = 2026-02-23T12:00:00.998784
MEAN_MOTION    = 15.76318087
ECCENTRICITY   = .0001497
INCLINATION    = 42.9993
RA_OF_ASC_NODE = 228.0575
ARG_OF_PERICENTER = 254.5962
MEAN_ANOMALY   = 354.3558

EPHEMERIS_TYPE = 0
CLASSIFICATION_TYPE = U
NORAD_CAT_ID   = 67620
ELEMENT_SET_NO = 999
REV_AT_EPOCH   = 510
BSTAR          = .73191E-3
MEAN_MOTION_DOT = .120142E-2
MEAN_MOTION_DDOT = 0

CCSDS_OMM_VERS = 2.0
CREATION_DATE  = 
ORIGINATOR     = 

OBJECT_NAME    = STARLINK-36615
OBJECT_ID      = 2026-020E
CENTER_NAME    = EARTH
REF_FRAME      = TEME
TIME_SYSTEM    = UTC
MEAN_ELEMENT_THEORY = SGP/SGP4

EPOCH          = 2026-02-23T12:03:06.923808
MEAN_MOTION    = 15.82538806
ECCENTRICITY   = .0003073
INCLINATION    = 42.9978
RA_OF_ASC_NODE = 227.7956
ARG_OF_PERICENTER = 253.5473
MEAN_ANOMALY   = 106.5062

EPHEMERIS_TYPE = 0
CLASSIFICATION_TYPE = U
NORAD_CAT_ID   = 67621
ELEMENT_SET_NO = 999
REV_AT_EPOCH   = 385
BSTAR          = .28344E-2
MEAN_MOTION_DOT = .659957E-2
MEAN_MOTION_DDOT = 0

CCSDS_OMM_VERS = 2.0
CREATION_DATE  = 
ORIGINATOR     = 

OBJECT_NAME    = STARLINK-36614
OBJECT_ID      = 2026-020F
CENTER_NAME    = EARTH
REF_FRAME      = TEME
TIME_SYSTEM    = UTC
MEAN_ELEMENT_THEORY = SGP/SGP4

EPOCH          = 2026-02-22T20:22:22.303200
MEAN_MOTION    = 15.76463187
ECCENTRICITY   = .0002584
INCLINATION    = 42.9988
RA_OF_ASC_NODE = 232.3866
ARG_OF_PERICENTER = 287.6022
MEAN_ANOMALY   = 72.4565

EPHEMERIS_TYPE = 0
CLASSIFICATION_TYPE = U
NORAD_CAT_ID   = 67622
ELEMENT_SET_NO = 999
REV_AT_EPOCH   = 374
BSTAR          = .83608E-3
MEAN_MOTION_DOT = .13851E-2
MEAN_MOTION_DDOT = 0

CCSDS_OMM_VERS = 2.0
CREATION_DATE  = 
ORIGINATOR     = 

OBJECT_NAME    = STARLINK-36600
OBJECT_ID      = 2026-020G
CENTER_NAME    = EARTH
REF_FRAME      = TEME
TIME_SYSTEM    = UTC
MEAN_ELEMENT_THEORY = SGP/SGP4

EPOCH          = 2026-02-22T20:25:31.531296
MEAN_MOTION    = 15.76457498
ECCENTRICITY   = .0002317
INCLINATION    = 42.9976
RA_OF_ASC_NODE = 232.4045
ARG_OF_PERICENTER = 273.3166
MEAN_ANOMALY   = 86.7439

EPHEMERIS_TYPE = 0
CLASSIFICATION_TYPE = U
NORAD_CAT_ID   = 67623
ELEMENT_SET_NO = 999
REV_AT_EPOCH   = 374
BSTAR          = .59657E-3
MEAN_MOTION_DOT = .98192E-3
MEAN_MOTION_DDOT = 0

